{"type":"FeatureCollection","features":[{"type":"Feature","id":"highway3.fid-294b17a9_19711b0bdc7_-2fbe","geometry":{"type":"LineString","coordinates":[[16.3757954,48.2029121],[16.3762354,48.2033424],[16.3762666,48.2033729],[16.3763309,48.2034343]]},"geometry_name":"osm_id","properties":{"id":3,"name":"Schubertring","highway":"residential","maxspeed":"30"}},{"type":"Feature","id":"highway3.fid-294b17a9_19711b0bdc7_-2fbd","geometry":{"type":"LineString","coordinates":[[16.3689954,48.2040571],[16.3688521,48.2040621],[16.3687023,48.2040697]]},"geometry_name":"osm_id","properties":{"id":12,"name":"Albertinaplatz","highway":"residential","maxspeed":"30"}},{"type":"Feature","id":"highway3.fid-294b17a9_19711b0bdc7_-2fbc","geometry":{"type":"LineString","coordinates":[[16.3763309,48.2034343],[16.3762678,48.2034646],[16.3756113,48.203756],[16.3749722,48.204048],[16.374902,48.2040801],[16.3748216,48.204116],[16.3742354,48.2043782],[16.3741593,48.2044262]]},"geometry_name":"osm_id","properties":{"id":26,"name":"Johannesgasse","highway":"residential","maxspeed":"30"}},{"type":"Feature","id":"highway3.fid-294b17a9_19711b0bdc7_-2fbb","geometry":{"type":"LineString","coordinates":[[16.3799428,48.2017984],[16.3801049,48.2017517]]},"geometry_name":"osm_id","properties":{"id":27,"name":"Johannesgasse","highway":"primary","maxspeed":"50"}},{"type":"Feature","id":"highway3.fid-294b17a9_19711b0bdc7_-2fba","geometry":{"type":"LineString","coordinates":[[16.3619434,48.2146034],[16.3620399,48.2146359],[16.3631112,48.2151288],[16.3640291,48.2155382],[16.3641285,48.2155825]]},"geometry_name":"osm_id","properties":{"id":33,"name":"Maria-Theresien-Straße","highway":"secondary","maxspeed":"50"}},{"type":"Feature","id":"highway3.fid-294b17a9_19711b0bdc7_-2fb9","geometry":{"type":"LineString","coordinates":[[16.3592628,48.214285],[16.3590938,48.2142917],[16.3587574,48.2143354]]},"geometry_name":"osm_id","properties":{"id":35,"name":"Universitätsstraße","highway":"secondary","maxspeed":"30"}},{"type":"Feature","id":"highway3.fid-294b17a9_19711b0bdc7_-2fb8","geometry":{"type":"LineString","coordinates":[[16.3859624,48.1990888],[16.3870566,48.1990616],[16.3872779,48.1990612],[16.3873801,48.1990625],[16.3873987,48.1990627]]},"geometry_name":"osm_id","properties":{"id":37,"name":"Neulinggasse","highway":"residential","maxspeed":"30"}},{"type":"Feature","id":"highway3.fid-294b17a9_19711b0bdc7_-2fb7","geometry":{"type":"LineString","coordinates":[[16.3742064,48.2140647],[16.3742872,48.2139577],[16.3745931,48.2136184],[16.3749221,48.2133138]]},"geometry_name":"osm_id","properties":{"id":49,"name":"Franz-Josefs-Kai","highway":"primary","maxspeed":"50"}},{"type":"Feature","id":"highway3.fid-294b17a9_19711b0bdc7_-2fb6","geometry":{"type":"LineString","coordinates":[[16.3644497,48.2117868],[16.3645971,48.2118255]]},"geometry_name":"osm_id","properties":{"id":50,"name":"Freyung","highway":"residential","maxspeed":"30"}},{"type":"Feature","id":"highway3.fid-294b17a9_19711b0bdc7_-2fb5","geometry":{"type":"LineString","coordinates":[[16.3665387,48.2143905],[16.3664709,48.214453],[16.3664301,48.2144909],[16.3657974,48.2151074],[16.3657181,48.215189],[16.3657283,48.2152213]]},"geometry_name":"osm_id","properties":{"id":52,"name":"Wipplingerstraße","highway":"residential","maxspeed":"30"}},{"type":"Feature","id":"highway3.fid-294b17a9_19711b0bdc7_-2fb4","geometry":{"type":"LineString","coordinates":[[16.3776235,48.213496],[16.3776441,48.2136129]]},"geometry_name":"osm_id","properties":{"id":54,"name":"Lilienbrunngasse","highway":"residential","maxspeed":"30"}},{"type":"Feature","id":"highway3.fid-294b17a9_19711b0bdc7_-2fb3","geometry":{"type":"LineString","coordinates":[[16.3657283,48.2152213],[16.3667727,48.2157039],[16.3669553,48.2157887]]},"geometry_name":"osm_id","properties":{"id":55,"name":"Schottenring","highway":"residential","maxspeed":"30"}},{"type":"Feature","id":"highway3.fid-294b17a9_19711b0bdc7_-2fb2","geometry":{"type":"LineString","coordinates":[[16.3839403,48.2044558],[16.3836036,48.2045119]]},"geometry_name":"osm_id","properties":{"id":64,"name":"Große Ungarbrücke","highway":"secondary","maxspeed":"50"}},{"type":"Feature","id":"highway3.fid-294b17a9_19711b0bdc7_-2fb1","geometry":{"type":"LineString","coordinates":[[16.3836854,48.2044246],[16.3841501,48.2043555]]},"geometry_name":"osm_id","properties":{"id":66,"name":"Große Ungarbrücke","highway":"secondary","maxspeed":"50"}},{"type":"Feature","id":"highway3.fid-294b17a9_19711b0bdc7_-2fb0","geometry":{"type":"LineString","coordinates":[[16.3836036,48.2045119],[16.3834402,48.2045396]]},"geometry_name":"osm_id","properties":{"id":68,"name":"Große Ungarbrücke","highway":"secondary","maxspeed":"50"}},{"type":"Feature","id":"highway3.fid-294b17a9_19711b0bdc7_-2faf","geometry":{"type":"LineString","coordinates":[[16.384486,48.2044042],[16.3843064,48.2044656]]},"geometry_name":"osm_id","properties":{"id":69,"name":"Große Ungarbrücke","highway":"secondary","maxspeed":"50"}},{"type":"Feature","id":"highway3.fid-294b17a9_19711b0bdc7_-2fae","geometry":{"type":"LineString","coordinates":[[16.3626602,48.2137992],[16.3627885,48.2136753],[16.3632246,48.2132545]]},"geometry_name":"osm_id","properties":{"id":71,"name":"Schottengasse","highway":"residential","maxspeed":"30"}},{"type":"Feature","id":"highway3.fid-294b17a9_19711b0bdc7_-2fad","geometry":{"type":"LineString","coordinates":[[16.3701668,48.2097748],[16.369596,48.2094578],[16.3695651,48.2094071],[16.3695748,48.2093638],[16.3696247,48.2092807],[16.369648,48.2092475],[16.3696875,48.2092205]]},"geometry_name":"osm_id","properties":{"id":74,"name":"Petersplatz","highway":"residential","maxspeed":"30"}},{"type":"Feature","id":"highway3.fid-294b17a9_19711b0bdc7_-2fac","geometry":{"type":"LineString","coordinates":[[16.3696875,48.2092205],[16.3697564,48.2091977],[16.3698256,48.20917],[16.3698981,48.2091663],[16.3699733,48.2091894],[16.3701791,48.2092865],[16.3705122,48.2095033],[16.3702142,48.2097276],[16.3701668,48.2097748]]},"geometry_name":"osm_id","properties":{"id":75,"name":"Petersplatz","highway":"residential","maxspeed":"30"}},{"type":"Feature","id":"highway3.fid-294b17a9_19711b0bdc7_-2fab","geometry":{"type":"LineString","coordinates":[[16.3797454,48.2064488],[16.3788315,48.2055563],[16.3777897,48.2045329],[16.37771,48.2044566],[16.3776471,48.2043911],[16.3771335,48.2038924],[16.3766665,48.2034442],[16.3766084,48.2033885],[16.3765466,48.2033264]]},"geometry_name":"osm_id","properties":{"id":76,"name":"Parkring","highway":"secondary","maxspeed":"50"}},{"type":"Feature","id":"highway3.fid-294b17a9_19711b0bdc7_-2faa","geometry":{"type":"LineString","coordinates":[[16.3804774,48.2071611],[16.38041,48.2070923],[16.3803747,48.207058],[16.380141,48.2068324],[16.3797454,48.2064488]]},"geometry_name":"osm_id","properties":{"id":77,"name":"Parkring","highway":"secondary","maxspeed":"50"}},{"type":"Feature","id":"highway3.fid-294b17a9_19711b0bdc7_-2fa9","geometry":{"type":"LineString","coordinates":[[16.363544,48.2129356],[16.363576,48.2128722],[16.3639914,48.2123037],[16.3641616,48.2120537]]},"geometry_name":"osm_id","properties":{"id":78,"name":"Schottengasse","highway":"residential","maxspeed":"30"}},{"type":"Feature","id":"highway3.fid-294b17a9_19711b0bdc7_-2fa8","geometry":{"type":"LineString","coordinates":[[16.3541306,48.2076852],[16.3542806,48.207708]]},"geometry_name":"osm_id","properties":{"id":82,"name":"Trautsongasse","highway":"residential","maxspeed":"15"}},{"type":"Feature","id":"highway3.fid-294b17a9_19711b0bdc7_-2fa7","geometry":{"type":"LineString","coordinates":[[16.3552213,48.2078409],[16.3551306,48.2078282],[16.3543447,48.2077183],[16.3542806,48.207708]]},"geometry_name":"osm_id","properties":{"id":83,"name":"Trautsongasse","highway":"residential","maxspeed":"30"}},{"type":"Feature","id":"highway3.fid-294b17a9_19711b0bdc7_-2fa6","geometry":{"type":"LineString","coordinates":[[16.3806496,48.2163],[16.3807395,48.2165445]]},"geometry_name":"osm_id","properties":{"id":84,"name":"Taborstraße","highway":"secondary","maxspeed":"50"}},{"type":"Feature","id":"highway3.fid-294b17a9_19711b0bdc7_-2fa5","geometry":{"type":"LineString","coordinates":[[16.3833559,48.2159237],[16.3827781,48.2158865]]},"geometry_name":"osm_id","properties":{"id":85,"name":"Schmelzgasse","highway":"residential","maxspeed":"30"}},{"type":"Feature","id":"highway3.fid-294b17a9_19711b0bdc7_-2fa4","geometry":{"type":"LineString","coordinates":[[16.3845863,48.2044097],[16.3846118,48.2043761],[16.3846395,48.2043497],[16.384886,48.2041813]]},"geometry_name":"osm_id","properties":{"id":86,"name":"Ungargasse","highway":"secondary","maxspeed":"50"}},{"type":"Feature","id":"highway3.fid-294b17a9_19711b0bdc7_-2fa3","geometry":{"type":"LineString","coordinates":[[16.3868923,48.2161328],[16.3867733,48.2160772],[16.3863552,48.2158389],[16.3859151,48.21558],[16.3855054,48.2153488],[16.3854939,48.2153426],[16.3851937,48.2151766],[16.3849501,48.2149839]]},"geometry_name":"osm_id","properties":{"id":87,"name":"Praterstraße","highway":"secondary","maxspeed":"50"}},{"type":"Feature","id":"highway3.fid-294b17a9_19711b0bdc7_-2fa2","geometry":{"type":"LineString","coordinates":[[16.3839403,48.2044558],[16.3836854,48.2044246]]},"geometry_name":"osm_id","properties":{"id":88,"name":"Große Ungarbrücke","highway":"secondary","maxspeed":"50"}},{"type":"Feature","id":"highway3.fid-294b17a9_19711b0bdc7_-2fa1","geometry":{"type":"LineString","coordinates":[[16.38436,48.2146639],[16.3842681,48.2146138],[16.3842348,48.2145956]]},"geometry_name":"osm_id","properties":{"id":89,"name":"Praterstraße","highway":"secondary","maxspeed":"50"}},{"type":"Feature","id":"highway3.fid-294b17a9_19711b0bdc7_-2fa0","geometry":{"type":"LineString","coordinates":[[16.3668157,48.2159336],[16.366853,48.2158949],[16.3669045,48.2158414],[16.3669553,48.2157887],[16.3670095,48.2157324],[16.3671202,48.2156175],[16.3678208,48.214944],[16.3678796,48.2149065],[16.3679711,48.2148644],[16.3683086,48.2145339],[16.3685376,48.2143098]]},"geometry_name":"osm_id","properties":{"id":96,"name":"Börsegasse","highway":"residential","maxspeed":"30"}},{"type":"Feature","id":"highway3.fid-294b17a9_19711b0bdc7_-2f9f","geometry":{"type":"LineString","coordinates":[[16.3779785,48.2017748],[16.3785171,48.2022932],[16.378612,48.2023844]]},"geometry_name":"osm_id","properties":{"id":100,"name":"Lothringerstraße","highway":"primary","maxspeed":"50"}},{"type":"Feature","id":"highway3.fid-294b17a9_19711b0bdc7_-2f9e","geometry":{"type":"LineString","coordinates":[[16.3782359,48.2025729],[16.378365,48.2025167],[16.3784907,48.2024573],[16.3785326,48.2024281],[16.378612,48.2023844]]},"geometry_name":"osm_id","properties":{"id":101,"name":"Johannesgasse","highway":"tertiary","maxspeed":"30"}},{"type":"Feature","id":"highway3.fid-294b17a9_19711b0bdc7_-2f9d","geometry":{"type":"LineString","coordinates":[[16.3741593,48.2044262],[16.3740976,48.2043744],[16.3735555,48.2039389]]},"geometry_name":"osm_id","properties":{"id":111,"name":"Seilerstätte","highway":"residential","maxspeed":"30"}},{"type":"Feature","id":"highway3.fid-294b17a9_19711b0bdc7_-2f9c","geometry":{"type":"LineString","coordinates":[[16.3741593,48.2044262],[16.3742025,48.2044763],[16.3745511,48.2051304],[16.3754372,48.2055774]]},"geometry_name":"osm_id","properties":{"id":112,"name":"Seilerstätte","highway":"residential","maxspeed":"30"}},{"type":"Feature","id":"highway3.fid-294b17a9_19711b0bdc7_-2f9b","geometry":{"type":"LineString","coordinates":[[16.3761985,48.2202576],[16.3762401,48.2202273],[16.3763181,48.2201705],[16.3764249,48.2200965],[16.376472,48.2200639],[16.3765633,48.2198829],[16.3768596,48.2191378],[16.3769939,48.2188792],[16.377409,48.2178543],[16.3774308,48.2177917],[16.3774402,48.2177646],[16.3775778,48.2173689],[16.3775914,48.2172055],[16.377602,48.2171163],[16.3776016,48.2170702],[16.3775895,48.2169226],[16.3775848,48.2168644]]},"geometry_name":"osm_id","properties":{"id":115,"name":"Leopoldsgasse","highway":"residential","maxspeed":"30"}},{"type":"Feature","id":"highway3.fid-294b17a9_19711b0bdc7_-2f9a","geometry":{"type":"LineString","coordinates":[[16.3517542,48.2022081],[16.3518889,48.2021917],[16.3519717,48.2021844],[16.3521868,48.2021789],[16.352279,48.2021821],[16.3524538,48.2021882],[16.3537249,48.2023075],[16.3542824,48.2023585],[16.3544481,48.2023751],[16.3545215,48.2023824],[16.354632,48.2023981]]},"geometry_name":"osm_id","properties":{"id":117,"name":"Siebensterngasse","highway":"residential","maxspeed":"50"}},{"type":"Feature","id":"highway3.fid-294b17a9_19711b0bdc7_-2f99","geometry":{"type":"LineString","coordinates":[[16.3635162,48.2038207],[16.363562,48.2038469],[16.3636623,48.2039045],[16.3637175,48.2039361]]},"geometry_name":"osm_id","properties":{"id":118,"name":"Babenbergerstraße","highway":"residential","maxspeed":"50"}},{"type":"Feature","id":"highway3.fid-294b17a9_19711b0bdc7_-2f98","geometry":{"type":"LineString","coordinates":[[16.3600878,48.206326],[16.360188,48.2063751],[16.3602205,48.2064051],[16.3602597,48.2064412],[16.3602682,48.2064491],[16.3602707,48.20646],[16.3602861,48.2065284]]},"geometry_name":"osm_id","properties":{"id":119,"name":"Bellariastraße","highway":"secondary","maxspeed":"50"}},{"type":"Feature","id":"highway3.fid-294b17a9_19711b0bdc7_-2f97","geometry":{"type":"LineString","coordinates":[[16.3763674,48.2119925],[16.3764042,48.2120381]]},"geometry_name":"osm_id","properties":{"id":120,"name":"Rotenturmstraße","highway":"residential","maxspeed":"50"}},{"type":"Feature","id":"highway3.fid-294b17a9_19711b0bdc7_-2f96","geometry":{"type":"LineString","coordinates":[[16.3670384,48.2074102],[16.3672007,48.2071551],[16.3672227,48.2071196]]},"geometry_name":"osm_id","properties":{"id":121,"name":"Reitschulgasse","highway":"residential","maxspeed":"30"}},{"type":"Feature","id":"highway3.fid-294b17a9_19711b0bdc7_-2f95","geometry":{"type":"LineString","coordinates":[[16.3739963,48.2139367],[16.373968,48.2139168],[16.3739134,48.2138828]]},"geometry_name":"osm_id","properties":{"id":122,"name":"Salztorgasse","highway":"residential","maxspeed":""}},{"type":"Feature","id":"highway3.fid-294b17a9_19711b0bdc7_-2f94","geometry":{"type":"LineString","coordinates":[[16.3593165,48.2172429],[16.3592443,48.2173123],[16.3590905,48.2174601],[16.3586882,48.2178722]]},"geometry_name":"osm_id","properties":{"id":124,"name":"Währinger Straße","highway":"secondary","maxspeed":"50"}},{"type":"Feature","id":"highway3.fid-294b17a9_19711b0bdc7_-2f93","geometry":{"type":"LineString","coordinates":[[16.3655392,48.2099586],[16.3660781,48.2101627]]},"geometry_name":"osm_id","properties":{"id":125,"name":"Leopold-Figl-Gasse","highway":"residential","maxspeed":"20"}},{"type":"Feature","id":"highway3.fid-294b17a9_19711b0bdc7_-2f92","geometry":{"type":"LineString","coordinates":[[16.3700282,48.2022605],[16.3698748,48.2022944],[16.3698051,48.2023115],[16.369772,48.2023198],[16.369666,48.2023464]]},"geometry_name":"osm_id","properties":{"id":128,"name":"Kärntner Ring","highway":"secondary","maxspeed":"50"}},{"type":"Feature","id":"highway3.fid-294b17a9_19711b0bdc7_-2f91","geometry":{"type":"LineString","coordinates":[[16.3705381,48.2061836],[16.37058,48.206263],[16.370612,48.2062841],[16.3706469,48.2062964],[16.3707452,48.2064299],[16.3708144,48.206554],[16.3708789,48.2067932]]},"geometry_name":"osm_id","properties":{"id":130,"name":"Neuer Markt","highway":"residential","maxspeed":"30"}},{"type":"Feature","id":"highway3.fid-294b17a9_19711b0bdc7_-2f90","geometry":{"type":"LineString","coordinates":[[16.3698126,48.2025628],[16.3698605,48.2026465],[16.3699621,48.2028409],[16.370071,48.2030525],[16.3703032,48.2035172],[16.3703259,48.2035914]]},"geometry_name":"osm_id","properties":{"id":131,"name":"Kärntner Straße","highway":"residential","maxspeed":"30"}},{"type":"Feature","id":"highway3.fid-294b17a9_19711b0bdc7_-2f8f","geometry":{"type":"LineString","coordinates":[[16.376121,48.2051618],[16.3762035,48.2051229],[16.3767168,48.2048894],[16.3768276,48.2048393],[16.377401,48.2045822]]},"geometry_name":"osm_id","properties":{"id":133,"name":"Weihburggasse","highway":"residential","maxspeed":"30"}},{"type":"Feature","id":"highway3.fid-294b17a9_19711b0bdc7_-2f8e","geometry":{"type":"LineString","coordinates":[[16.3612768,48.2135064],[16.3612158,48.2132805],[16.3611286,48.2129762],[16.3610492,48.2126992],[16.3609881,48.2124748],[16.3609192,48.2122453]]},"geometry_name":"osm_id","properties":{"id":137,"name":"Universitätsring","highway":"residential","maxspeed":"50"}},{"type":"Feature","id":"highway3.fid-294b17a9_19711b0bdc7_-2f8d","geometry":{"type":"LineString","coordinates":[[16.3633002,48.2015086],[16.3632537,48.201469],[16.363245,48.2014616],[16.3631783,48.2014019],[16.3631223,48.2013517]]},"geometry_name":"osm_id","properties":{"id":145,"name":"Geniehof","highway":"residential","maxspeed":""}}],"totalFeatures":1293,"numberMatched":1293,"numberReturned":50,"timeStamp":"2025-05-27T12:26:18.423Z","crs":{"type":"name","properties":{"name":"urn:ogc:def:crs:EPSG::4326"}}}